[
    {
        "Altitude(m)": 707287.4905314528,
        "Argument of Periapsis(deg)": 0.011390121186627068,
        "Eccentricity": 0.0,
        "Inclination(deg)": 45.0,
        "Latitude(deg)": 45.05545392401898,
        "Longitude(deg)": -46.01848471196154,
        "Mean Anomaly(deg)": -266.64858335251915,
        "RAAN(deg)": 319.98924805854176,
        "Satellite Name": "Constellation 1 1413",
        "Satellite Number": 1413,
        "Semi-Major Axis(m)": 7083131.272910544,
        "Time(s)": 190
    },
    {
        "Altitude(m)": 707286.6829880009,
        "Argument of Periapsis(deg)": 0.011450069192872472,
        "Eccentricity": 0.0,
        "Inclination(deg)": 45.0,
        "Latitude(deg)": 45.05185630821828,
        "Longitude(deg)": -45.93700057618291,
        "Mean Anomaly(deg)": -266.5878822122693,
        "RAAN(deg)": 319.98919146937624,
        "Satellite Name": "Constellation 1 1413",
        "Satellite Number": 1413,
        "Semi-Major Axis(m)": 7083131.272910544,
        "Time(s)": 191
    },
    {
        "Altitude(m)": 707285.8609406198,
        "Argument of Periapsis(deg)": 0.01151001719911788,
        "Eccentricity": 0.0,
        "Inclination(deg)": 45.0,
        "Latitude(deg)": 45.048194577497256,
        "Longitude(deg)": -45.85552726022077,
        "Mean Anomaly(deg)": -266.5271810720194,
        "RAAN(deg)": 319.98913488021066,
        "Satellite Name": "Constellation 1 1413",
        "Satellite Number": 1413,
        "Semi-Major Axis(m)": 7083131.272910544,
        "Time(s)": 192
    },
    {
        "Altitude(m)": 707285.0243941422,
        "Argument of Periapsis(deg)": 0.011569965205363285,
        "Eccentricity": 0.0,
        "Inclination(deg)": 45.0,
        "Latitude(deg)": 45.044468748077016,
        "Longitude(deg)": -45.77406512045046,
        "Mean Anomaly(deg)": -266.46647993176947,
        "RAAN(deg)": 319.9890782910451,
        "Satellite Name": "Constellation 1 1413",
        "Satellite Number": 1413,
        "Semi-Major Axis(m)": 7083131.272910544,
        "Time(s)": 193
    },
    {
        "Altitude(m)": 707284.1733535057,
        "Argument of Periapsis(deg)": 0.01162991321160869,
        "Eccentricity": 0.0,
        "Inclination(deg)": 45.0,
        "Latitude(deg)": 45.04067883645795,
        "Longitude(deg)": -45.69261400876147,
        "Mean Anomaly(deg)": -266.4057787915196,
        "RAAN(deg)": 319.98902170187955,
        "Satellite Name": "Constellation 1 1413",
        "Satellite Number": 1413,
        "Semi-Major Axis(m)": 7083131.272910544,
        "Time(s)": 194
    },
    {
        "Altitude(m)": 707283.3078237161,
        "Argument of Periapsis(deg)": 0.011689861217854095,
        "Eccentricity": 0.0,
        "Inclination(deg)": 45.0,
        "Latitude(deg)": 45.03682485941804,
        "Longitude(deg)": -45.61117428113444,
        "Mean Anomaly(deg)": -266.34507765126966,
        "RAAN(deg)": 319.9889651127139,
        "Satellite Name": "Constellation 1 1413",
        "Satellite Number": 1413,
        "Semi-Major Axis(m)": 7083131.272910544,
        "Time(s)": 195
    },
    {
        "Altitude(m)": 707282.4278098731,
        "Argument of Periapsis(deg)": 0.0117498092240995,
        "Eccentricity": 0.0,
        "Inclination(deg)": 45.0,
        "Latitude(deg)": 45.032906834013545,
        "Longitude(deg)": -45.529746125251116,
        "Mean Anomaly(deg)": -266.2843765110198,
        "RAAN(deg)": 319.9889085235484,
        "Satellite Name": "Constellation 1 1413",
        "Satellite Number": 1413,
        "Semi-Major Axis(m)": 7083131.272910544,
        "Time(s)": 196
    },
    {
        "Altitude(m)": 707281.5333171523,
        "Argument of Periapsis(deg)": 0.011809757230344905,
        "Eccentricity": 0.0,
        "Inclination(deg)": 45.0,
        "Latitude(deg)": 45.028924777578204,
        "Longitude(deg)": -45.44832972858767,
        "Mean Anomaly(deg)": -266.22367537076985,
        "RAAN(deg)": 319.9888519343828,
        "Satellite Name": "Constellation 1 1413",
        "Satellite Number": 1413,
        "Semi-Major Axis(m)": 7083131.272910544,
        "Time(s)": 197
    },
    {
        "Altitude(m)": 707280.6243508258,
        "Argument of Periapsis(deg)": 0.011869705236590313,
        "Eccentricity": 0.0,
        "Inclination(deg)": 45.0,
        "Latitude(deg)": 45.024878707723,
        "Longitude(deg)": -45.36692527841183,
        "Mean Anomaly(deg)": -266.16297423052,
        "RAAN(deg)": 319.9887953452172,
        "Satellite Name": "Constellation 1 1413",
        "Satellite Number": 1413,
        "Semi-Major Axis(m)": 7083131.272910544,
        "Time(s)": 198
    },
    {
        "Altitude(m)": 707279.7009162445,
        "Argument of Periapsis(deg)": 0.011929653242835719,
        "Eccentricity": 0.0,
        "Inclination(deg)": 45.0,
        "Latitude(deg)": 45.020768642335746,
        "Longitude(deg)": -45.28553296177925,
        "Mean Anomaly(deg)": -266.1022730902701,
        "RAAN(deg)": 319.9887387560517,
        "Satellite Name": "Constellation 1 1413",
        "Satellite Number": 1413,
        "Semi-Major Axis(m)": 7083131.272910544,
        "Time(s)": 199
    }
]